{"fetched_at":"2026-03-29T16:36:15Z","count":15609,"tles":[{"name":"STARLINK-32346","line1":"1 61849U 24202E   26087.77155217 -.00001705  00000+0 -52489-4 0  9992","line2":"2 61849  43.0016 119.1758 0000963 277.3421  82.7322 15.27562593 78374","category":"Starlink"}]}